{
  "type": "FeatureCollection",
  "features": [
    {
      "type": "Feature",
      "properties": {
        "norad_id": 31250,
        "name": "FENGYUN 1C DEB",
        "group": "fengyun-1c-debris",
        "lat": -39.29292895120788,
        "lon": 6.28620117460482,
        "alt_km": 886.3365650468586,
        "timestamp": "2025-12-08T21:31:04.949026+00:00",
        "meta_object_name": "FENGYUN 1C DEB",
        "meta_object_id": "1999-025BMG",
        "meta_epoch": "2025-11-27T20:53:06.321984",
        "meta_mean_motion": 14.02996088,
        "meta_eccentricity": 0.01342537,
        "meta_inclination": 98.3888,
        "meta_ra_of_asc_node": 183.0534,
        "meta_arg_of_pericenter": 339.6638,
        "meta_mean_anomaly": 19.9213,
        "meta_ephemeris_type": 0,
        "meta_classification_type": "U",
        "meta_norad_cat_id": 31250,
        "meta_element_set_no": 999,
        "meta_rev_at_epoch": 95309,
        "meta_bstar": 0.0013427936,
        "meta_mean_motion_dot": 2.218e-05,
        "meta_mean_motion_ddot": 0,
        "tle_line1": "1 31250U 99025BMG 25331.87021206  .00002218  00000+0  13428-2 0  9998",
        "tle_line2": "2 31250  98.3888 183.0534 0134253 339.6638  19.9213 14.02996088953095"
      },
      "geometry": {
        "type": "Point",
        "coordinates": [
          6.28620117460482,
          -39.29292895120788
        ]
      }
    },
    {
      "type": "Feature",
      "properties": {
        "norad_id": 31252,
        "name": "FENGYUN 1C DEB",
        "group": "fengyun-1c-debris",
        "lat": 54.86460748693736,
        "lon": -166.15255927523313,
        "alt_km": 673.2276728814377,
        "timestamp": "2025-12-08T21:31:04.949036+00:00",
        "meta_object_name": "FENGYUN 1C DEB",
        "meta_object_id": "1999-025BMJ",
        "meta_epoch": "2025-12-08T07:35:34.476000",
        "meta_mean_motion": 14.40154562,
        "meta_eccentricity": 0.0213459,
        "meta_inclination": 98.3185,
        "meta_ra_of_asc_node": 1.2837,
        "meta_arg_of_pericenter": 185.528,
        "meta_mean_anomaly": 174.3551,
        "meta_ephemeris_type": 0,
        "meta_classification_type": "U",
        "meta_norad_cat_id": 31252,
        "meta_element_set_no": 999,
        "meta_rev_at_epoch": 97143,
        "meta_bstar": 0.00065761129,
        "meta_mean_motion_dot": 2.67e-05,
        "meta_mean_motion_ddot": 0,
        "tle_line1": "1 31252U 99025BMJ 25342.31637125  .00002670  00000+0  65761-3 0  9994",
        "tle_line2": "2 31252  98.3185   1.2837 0213459 185.5280 174.3551 14.40154562971435"
      },
      "geometry": {
        "type": "Point",
        "coordinates": [
          -166.15255927523313,
          54.86460748693736
        ]
      }
    },
    {
      "type": "Feature",
      "properties": {
        "norad_id": 31253,
        "name": "FENGYUN 1C DEB",
        "group": "fengyun-1c-debris",
        "lat": 21.31432592740897,
        "lon": 44.343423061789274,
        "alt_km": 837.8527295251661,
        "timestamp": "2025-12-08T21:31:04.949046+00:00",
        "meta_object_name": "FENGYUN 1C DEB",
        "meta_object_id": "1999-025BMK",
        "meta_epoch": "2025-12-06T11:14:47.770080",
        "meta_mean_motion": 14.03588914,
        "meta_eccentricity": 0.02905761,
        "meta_inclination": 99.0778,
        "meta_ra_of_asc_node": 45.4929,
        "meta_arg_of_pericenter": 108.2399,
        "meta_mean_anomaly": 255.062,
        "meta_ephemeris_type": 0,
        "meta_classification_type": "U",
        "meta_norad_cat_id": 31253,
        "meta_element_set_no": 999,
        "meta_rev_at_epoch": 68910,
        "meta_bstar": 0.00074628636,
        "meta_mean_motion_dot": 1.659e-05,
        "meta_mean_motion_ddot": 0,
        "tle_line1": "1 31253U 99025BMK 25340.46860845  .00001659  00000+0  74629-3 0  9995",
        "tle_line2": "2 31253  99.0778  45.4929 0290576 108.2399 255.0620 14.03588914689107"
      },
      "geometry": {
        "type": "Point",
        "coordinates": [
          44.343423061789274,
          21.31432592740897
        ]
      }
    },
    {
      "type": "Feature",
      "properties": {
        "norad_id": 31254,
        "name": "FENGYUN 1C DEB",
        "group": "fengyun-1c-debris",
        "lat": -11.22085228081192,
        "lon": 34.345766987519276,
        "alt_km": 850.4704487461777,
        "timestamp": "2025-12-08T21:31:04.949056+00:00",
        "meta_object_name": "FENGYUN 1C DEB",
        "meta_object_id": "1999-025BML",
        "meta_epoch": "2025-11-27T22:14:27.134880",
        "meta_mean_motion": 14.36276197,
        "meta_eccentricity": 0.0150752,
        "meta_inclination": 98.4636,
        "meta_ra_of_asc_node": 21.8734,
        "meta_arg_of_pericenter": 246.3529,
        "meta_mean_anomaly": 292.2282,
        "meta_ephemeris_type": 0,
        "meta_classification_type": "U",
        "meta_norad_cat_id": 31254,
        "meta_element_set_no": 999,
        "meta_rev_at_epoch": 97303,
        "meta_bstar": 0.00058845,
        "meta_mean_motion_dot": 1.909e-05,
        "meta_mean_motion_ddot": 0,
        "tle_line1": "1 31254U 99025BML 25331.92670295  .00001909  00000+0  58845-3 0  9995",
        "tle_line2": "2 31254  98.4636  21.8734 0150752 246.3529 292.2282 14.36276197973034"
      },
      "geometry": {
        "type": "Point",
        "coordinates": [
          34.345766987519276,
          -11.22085228081192
        ]
      }
    },
    {
      "type": "Feature",
      "properties": {
        "norad_id": 31255,
        "name": "FENGYUN 1C DEB",
        "group": "fengyun-1c-debris",
        "lat": -80.5413151300414,
        "lon": -120.27081479052927,
        "alt_km": 837.0412513948768,
        "timestamp": "2025-12-08T21:31:04.949066+00:00",
        "meta_object_name": "FENGYUN 1C DEB",
        "meta_object_id": "1999-025BMM",
        "meta_epoch": "2025-12-07T05:02:24.538272",
        "meta_mean_motion": 14.09717215,
        "meta_eccentricity": 0.02708719,
        "meta_inclination": 99.3085,
        "meta_ra_of_asc_node": 158.0982,
        "meta_arg_of_pericenter": 358.9122,
        "meta_mean_anomaly": 1.1426,
        "meta_ephemeris_type": 0,
        "meta_classification_type": "U",
        "meta_norad_cat_id": 31255,
        "meta_element_set_no": 999,
        "meta_rev_at_epoch": 96723,
        "meta_bstar": 0.00045625393,
        "meta_mean_motion_dot": 1.074e-05,
        "meta_mean_motion_ddot": 0,
        "tle_line1": "1 31255U 99025BMM 25341.21000623  .00001074  00000+0  45625-3 0  9996",
        "tle_line2": "2 31255  99.3085 158.0982 0270871 358.9122   1.1426 14.09717215967238"
      },
      "geometry": {
        "type": "Point",
        "coordinates": [
          -120.27081479052927,
          -80.5413151300414
        ]
      }
    },
    {
      "type": "Feature",
      "properties": {
        "norad_id": 31256,
        "name": "FENGYUN 1C DEB",
        "group": "fengyun-1c-debris",
        "lat": -55.33764411783559,
        "lon": -2.0445871856453484,
        "alt_km": 964.999466009569,
        "timestamp": "2025-12-08T21:31:04.949077+00:00",
        "meta_object_name": "FENGYUN 1C DEB",
        "meta_object_id": "1999-025BMN",
        "meta_epoch": "2025-12-03T08:38:37.232160",
        "meta_mean_motion": 14.03080392,
        "meta_eccentricity": 0.03081552,
        "meta_inclination": 98.6841,
        "meta_ra_of_asc_node": 185.432,
        "meta_arg_of_pericenter": 140.4727,
        "meta_mean_anomaly": 221.936,
        "meta_ephemeris_type": 0,
        "meta_classification_type": "U",
        "meta_norad_cat_id": 31256,
        "meta_element_set_no": 999,
        "meta_rev_at_epoch": 64850,
        "meta_bstar": 0.0040356477,
        "meta_mean_motion_dot": 9.524e-05,
        "meta_mean_motion_ddot": 0,
        "tle_line1": "1 31256U 99025BMN 25337.36015315  .00009524  00000+0  40356-2 0  9995",
        "tle_line2": "2 31256  98.6841 185.4320 0308155 140.4727 221.9360 14.03080392648501"
      },
      "geometry": {
        "type": "Point",
        "coordinates": [
          -2.0445871856453484,
          -55.33764411783559
        ]
      }
    },
    {
      "type": "Feature",
      "properties": {
        "norad_id": 31258,
        "name": "FENGYUN 1C DEB",
        "group": "fengyun-1c-debris",
        "lat": -69.70368244510621,
        "lon": 156.09707757350768,
        "alt_km": 537.9282516869944,
        "timestamp": "2025-12-08T21:31:04.949087+00:00",
        "meta_object_name": "FENGYUN 1C DEB",
        "meta_object_id": "1999-025BMQ",
        "meta_epoch": "2025-12-08T09:13:27.859872",
        "meta_mean_motion": 15.10659113,
        "meta_eccentricity": 0.00042791,
        "meta_inclination": 98.8513,
        "meta_ra_of_asc_node": 130.5852,
        "meta_arg_of_pericenter": 290.0606,
        "meta_mean_anomaly": 94.1302,
        "meta_ephemeris_type": 0,
        "meta_classification_type": "U",
        "meta_norad_cat_id": 31258,
        "meta_element_set_no": 999,
        "meta_rev_at_epoch": 97045,
        "meta_bstar": 0.010276212,
        "meta_mean_motion_dot": 0.00174054,
        "meta_mean_motion_ddot": 0,
        "tle_line1": "1 31258U 99025BMQ 25342.38435023  .00174054  00000+0  10276-1 0  9995",
        "tle_line2": "2 31258  98.8513 130.5852 0004279 290.0606  94.1302 15.10659113970450"
      },
      "geometry": {
        "type": "Point",
        "coordinates": [
          156.09707757350768,
          -69.70368244510621
        ]
      }
    }
  ]
}